{
"type": "FeatureCollection",
"name": "poi2",
"crs": { "type": "name", "properties": { "name": "urn:ogc:def:crs:OGC:1.3:CRS84" } },
"features": [
{ "type": "Feature", "properties": { "id": 1, "nom_jeu": "Maison de la Radio", "lieu_reel": null, "x_longitude": 2.278253, "y_latitude": 48.852495 }, "geometry": { "type": "Point", "coordinates": [ 2.278253, 48.852495 ] } },
{ "type": "Feature", "properties": { "id": 2, "nom_jeu": "La Défense", "lieu_reel": null, "x_longitude": 2.236112, "y_latitude": 48.892598 }, "geometry": { "type": "Point", "coordinates": [ 2.236112, 48.892598 ] } },
{ "type": "Feature", "properties": { "id": 3, "nom_jeu": "Fort de Noisy", "lieu_reel": null, "x_longitude": 2.44917, "y_latitude": 48.882976 }, "geometry": { "type": "Point", "coordinates": [ 2.44917, 48.882976 ] } },
{ "type": "Feature", "properties": { "id": 4, "nom_jeu": "Cratère Sud", "lieu_reel": null, "x_longitude": 2.3495, "y_latitude": 48.847 }, "geometry": { "type": "Point", "coordinates": [ 2.3495, 48.847 ] } },
{ "type": "Feature", "properties": { "id": 5, "nom_jeu": "Cratère Nord", "lieu_reel": null, "x_longitude": 2.357671, "y_latitude": 48.878893 }, "geometry": { "type": "Point", "coordinates": [ 2.357671, 48.878893 ] } },
{ "type": "Feature", "properties": { "id": 6, "nom_jeu": "Cratère Ouest (dévié)", "lieu_reel": null, "x_longitude": 2.23, "y_latitude": 48.8885 }, "geometry": { "type": "Point", "coordinates": [ 2.23, 48.8885 ] } },
{ "type": "Feature", "properties": { "id": 7, "nom_jeu": "Hôtel des Invalides", "lieu_reel": null, "x_longitude": 2.312706, "y_latitude": 48.856529 }, "geometry": { "type": "Point", "coordinates": [ 2.312706, 48.856529 ] } },
{ "type": "Feature", "properties": { "id": 8, "nom_jeu": "Hôpital Républicain", "lieu_reel": null, "x_longitude": 2.255847, "y_latitude": 48.813805 }, "geometry": { "type": "Point", "coordinates": [ 2.255847, 48.813805 ] } },
{ "type": "Feature", "properties": { "id": 9, "nom_jeu": "Gendarmerie", "lieu_reel": null, "x_longitude": 2.269846, "y_latitude": 48.814677 }, "geometry": { "type": "Point", "coordinates": [ 2.269846, 48.814677 ] } },
{ "type": "Feature", "properties": { "id": 10, "nom_jeu": "Vault 91", "lieu_reel": null, "x_longitude": 2.28928, "y_latitude": 48.861689 }, "geometry": { "type": "Point", "coordinates": [ 2.28928, 48.861689 ] } },
{ "type": "Feature", "properties": { "id": 11, "nom_jeu": "Vault 74", "lieu_reel": null, "x_longitude": 2.204563, "y_latitude": 48.853559 }, "geometry": { "type": "Point", "coordinates": [ 2.204563, 48.853559 ] } },
{ "type": "Feature", "properties": { "id": 12, "nom_jeu": "Bourg de Bois", "lieu_reel": null, "x_longitude": 2.218873, "y_latitude": 48.808232 }, "geometry": { "type": "Point", "coordinates": [ 2.218873, 48.808232 ] } },
{ "type": "Feature", "properties": { "id": 13, "nom_jeu": "Beaugrenelle", "lieu_reel": null, "x_longitude": 2.282361, "y_latitude": 48.848324 }, "geometry": { "type": "Point", "coordinates": [ 2.282361, 48.848324 ] } },
{ "type": "Feature", "properties": { "id": 14, "nom_jeu": "Galeries Lafayette", "lieu_reel": null, "x_longitude": 2.33211, "y_latitude": 48.873622 }, "geometry": { "type": "Point", "coordinates": [ 2.33211, 48.873622 ] } },
{ "type": "Feature", "properties": { "id": 15, "nom_jeu": "Forum de Châtelet", "lieu_reel": null, "x_longitude": 2.347095, "y_latitude": 48.862016 }, "geometry": { "type": "Point", "coordinates": [ 2.347095, 48.862016 ] } },
{ "type": "Feature", "properties": { "id": 16, "nom_jeu": "Parc des Princes", "lieu_reel": null, "x_longitude": 2.25305, "y_latitude": 48.841437 }, "geometry": { "type": "Point", "coordinates": [ 2.25305, 48.841437 ] } },
{ "type": "Feature", "properties": { "id": 17, "nom_jeu": "Bercy", "lieu_reel": null, "x_longitude": 2.37847, "y_latitude": 48.838604 }, "geometry": { "type": "Point", "coordinates": [ 2.37847, 48.838604 ] } },
{ "type": "Feature", "properties": { "id": 18, "nom_jeu": "Cour des Miracles", "lieu_reel": null, "x_longitude": 2.3494, "y_latitude": 48.8527 }, "geometry": { "type": "Point", "coordinates": [ 2.3494, 48.8527 ] } },
{ "type": "Feature", "properties": { "id": 19, "nom_jeu": "Opéra Garnier", "lieu_reel": null, "x_longitude": 2.331601, "y_latitude": 48.87197 }, "geometry": { "type": "Point", "coordinates": [ 2.331601, 48.87197 ] } },
{ "type": "Feature", "properties": { "id": 20, "nom_jeu": "Tour Eiffel", "lieu_reel": null, "x_longitude": 2.294481, "y_latitude": 48.85837 }, "geometry": { "type": "Point", "coordinates": [ 2.294481, 48.85837 ] } },
{ "type": "Feature", "properties": { "id": 21, "nom_jeu": "Front de l'Opéra", "lieu_reel": null, "x_longitude": 2.331856, "y_latitude": 48.872796 }, "geometry": { "type": "Point", "coordinates": [ 2.331856, 48.872796 ] } },
{ "type": "Feature", "properties": { "id": 22, "nom_jeu": "Fort du Mont-Valérien", "lieu_reel": null, "x_longitude": 2.216607, "y_latitude": 48.873894 }, "geometry": { "type": "Point", "coordinates": [ 2.216607, 48.873894 ] } },
{ "type": "Feature", "properties": { "id": 23, "nom_jeu": "Hôpital populaire", "lieu_reel": "Hôpital européen Georges-Pompidou", "x_longitude": 2.2737, "y_latitude": 48.8389 }, "geometry": { "type": "Point", "coordinates": [ 2.2737, 48.8389 ] } },
{ "type": "Feature", "properties": { "id": 24, "nom_jeu": "Musée du Louvre", "lieu_reel": "Musée du Louvre", "x_longitude": 2.338629, "y_latitude": 48.860294 }, "geometry": { "type": "Point", "coordinates": [ 2.338629, 48.860294 ] } },
{ "type": "Feature", "properties": { "id": 25, "nom_jeu": "Tour Montparnasse", "lieu_reel": "Tour Montparnasse", "x_longitude": 2.321782, "y_latitude": 48.842106 }, "geometry": { "type": "Point", "coordinates": [ 2.321782, 48.842106 ] } },
{ "type": "Feature", "properties": { "id": 26, "nom_jeu": "Notre-Dame de Paris", "lieu_reel": "Cathédrale Notre-Dame de Paris", "x_longitude": 2.349902, "y_latitude": 48.852968 }, "geometry": { "type": "Point", "coordinates": [ 2.349902, 48.852968 ] } },
{ "type": "Feature", "properties": { "id": 27, "nom_jeu": "Le Repaire du Dragon", "lieu_reel": "43 bis avenue Simon Bolivar, 75019 Paris", "x_longitude": 2.380753, "y_latitude": 48.875998 }, "geometry": { "type": "Point", "coordinates": [ 2.380753, 48.875998 ] } },
{ "type": "Feature", "properties": { "id": 28, "nom_jeu": "L'Abbé Groult", "lieu_reel": "85 rue de l'Abbé Groult, 75015 Paris", "x_longitude": 2.298244, "y_latitude": 48.838533 }, "geometry": { "type": "Point", "coordinates": [ 2.298244, 48.838533 ] } },
{ "type": "Feature", "properties": { "id": 29, "nom_jeu": "Montmartre", "lieu_reel": "Basilique du Sacré-Cœur de Montmartre", "x_longitude": 2.343121, "y_latitude": 48.886452 }, "geometry": { "type": "Point", "coordinates": [ 2.343121, 48.886452 ] } },
{ "type": "Feature", "properties": { "id": 30, "nom_jeu": "EHPAD Sainte Emilie", "lieu_reel": "EHPAD Sainte Emilie", "x_longitude": 2.2511, "y_latitude": 48.8058418 }, "geometry": { "type": "Point", "coordinates": [ 2.2511, 48.8058418 ] } },
{ "type": "Feature", "properties": { "id": 31, "nom_jeu": "Hôpital abandonné", "lieu_reel": "Hôpital de la Pitié-Salpêtrière", "x_longitude": 2.365, "y_latitude": 48.837 }, "geometry": { "type": "Point", "coordinates": [ 2.365, 48.837 ] } },
{ "type": "Feature", "properties": { "id": 32, "nom_jeu": "Place d'Italie", "lieu_reel": "Place d'Italie", "x_longitude": 2.3557, "y_latitude": 48.8315 }, "geometry": { "type": "Point", "coordinates": [ 2.3557, 48.8315 ] } },
{ "type": "Feature", "properties": { "id": 33, "nom_jeu": "Marcel Sembat", "lieu_reel": "Station de métro Marcel Sembat", "x_longitude": 2.243578, "y_latitude": 48.833669 }, "geometry": { "type": "Point", "coordinates": [ 2.243578, 48.833669 ] } },
{ "type": "Feature", "properties": { "id": 34, "nom_jeu": "Obélisque de la Concorde", "lieu_reel": "Obélisque de Louxor - Place de la Concorde", "x_longitude": 2.321129, "y_latitude": 48.865476 }, "geometry": { "type": "Point", "coordinates": [ 2.321129, 48.865476 ] } },
{ "type": "Feature", "properties": { "id": 35, "nom_jeu": "QG du NNFP", "lieu_reel": "Mairie de Montrouge", "x_longitude": 2.320964, "y_latitude": 48.818806 }, "geometry": { "type": "Point", "coordinates": [ 2.320964, 48.818806 ] } },
{ "type": "Feature", "properties": { "id": 36, "nom_jeu": "Fort d'Ivry", "lieu_reel": "Fort d'Ivry", "x_longitude": 2.389649, "y_latitude": 48.802546 }, "geometry": { "type": "Point", "coordinates": [ 2.389649, 48.802546 ] } },
{ "type": "Feature", "properties": { "id": 37, "nom_jeu": "Fort de Bicêtre", "lieu_reel": "Fort de Bicêtre", "x_longitude": 2.354766, "y_latitude": 48.805247 }, "geometry": { "type": "Point", "coordinates": [ 2.354766, 48.805247 ] } },
{ "type": "Feature", "properties": { "id": 38, "nom_jeu": "Alésia", "lieu_reel": "Place d'Alésia", "x_longitude": 2.327186, "y_latitude": 48.828031 }, "geometry": { "type": "Point", "coordinates": [ 2.327186, 48.828031 ] } },
{ "type": "Feature", "properties": { "id": 39, "nom_jeu": "Donjon de Vincennes", "lieu_reel": "Donjon de Vincennes", "x_longitude": 2.435646, "y_latitude": 48.842906 }, "geometry": { "type": "Point", "coordinates": [ 2.435646, 48.842906 ] } },
{ "type": "Feature", "properties": { "id": 40, "nom_jeu": "Forêt de Bagnolet", "lieu_reel": "Stade de bagnolet+parc", "x_longitude": 2.427495, "y_latitude": 48.862081 }, "geometry": { "type": "Point", "coordinates": [ 2.427495, 48.862081 ] } },
{ "type": "Feature", "properties": { "id": 41, "nom_jeu": "Place de la Nation", "lieu_reel": "Nation", "x_longitude": 2.395877, "y_latitude": 48.848388 }, "geometry": { "type": "Point", "coordinates": [ 2.395877, 48.848388 ] } },
{ "type": "Feature", "properties": { "id": 42, "nom_jeu": "Cité des Sciences", "lieu_reel": "cité des sciences", "x_longitude": 2.387996, "y_latitude": 48.895545 }, "geometry": { "type": "Point", "coordinates": [ 2.387996, 48.895545 ] } },
{ "type": "Feature", "properties": { "id": 43, "nom_jeu": "Marché de l'Arche", "lieu_reel": "arc de triomphe", "x_longitude": 2.2950395, "y_latitude": 48.8739329 }, "geometry": { "type": "Point", "coordinates": [ 2.2950395, 48.8739329 ] } },
{ "type": "Feature", "properties": { "id": 44, "nom_jeu": "DGSI", "lieu_reel": null, "x_longitude": 2.276645, "y_latitude": 48.893117 }, "geometry": { "type": "Point", "coordinates": [ 2.276645, 48.893117 ] } }
]
}
