{
"type": "FeatureCollection",
"name": "zones2",
"crs": { "type": "name", "properties": { "name": "urn:ogc:def:crs:OGC:1.3:CRS84" } },
"features": [
{ "type": "Feature", "properties": { "Nom": "L'enfer Vert", "Faction": null, "Statut": "max_rad", "Type": "Danger", "Descriptio": "Le désert de rad, l'enfer vert", "Visible": true, "sort": 1 }, "geometry": { "type": "MultiPolygon", "coordinates": [ [ [ [ 2.265836982171991, 48.908570494783277 ], [ 2.262001380242741, 48.90557872527846 ], [ 2.261771244126985, 48.900976002963361 ], [ 2.260536800575251, 48.900398167366156 ], [ 2.260167808195499, 48.899014445942093 ], [ 2.258507342486616, 48.897077235948395 ], [ 2.25518641106885, 48.893295064055934 ], [ 2.253618193454905, 48.889051651688789 ], [ 2.249282532992821, 48.888774907403977 ], [ 2.234799582087564, 48.889420644068544 ], [ 2.236390861725243, 48.886883821457751 ], [ 2.237082722437278, 48.884254750752021 ], [ 2.236805978152464, 48.881371997785209 ], [ 2.235814311131881, 48.878673741008271 ], [ 2.232770123998928, 48.8751452513769 ], [ 2.229541440676099, 48.873738467929101 ], [ 2.22502128402414, 48.873922964118975 ], [ 2.229168627728349, 48.866762433754438 ], [ 2.225639873953438, 48.86392408832679 ], [ 2.224949465606173, 48.862543271632262 ], [ 2.225333025799098, 48.857173428931311 ], [ 2.23100971665439, 48.854641931658009 ], [ 2.233924774120621, 48.851266601960262 ], [ 2.236763119548267, 48.850806329728755 ], [ 2.242363098364974, 48.848274832455445 ], [ 2.250341150377817, 48.84858168060979 ], [ 2.252872647651122, 48.849502225072811 ], [ 2.256017841233108, 48.847737848185353 ], [ 2.259086322776509, 48.84858168060979 ], [ 2.268896784179003, 48.847620726049847 ], [ 2.272309963691707, 48.852786619366377 ], [ 2.273416940830962, 48.856015302689201 ], [ 2.276737872248729, 48.857306776018333 ], [ 2.279689811286743, 48.858690497442403 ], [ 2.282826246514633, 48.86016646696141 ], [ 2.283252893953722, 48.860270246068204 ], [ 2.283564231274137, 48.86016646696141 ], [ 2.283967816689491, 48.860523928329286 ], [ 2.284117719843765, 48.860812203625976 ], [ 2.28468273942526, 48.861054354875179 ], [ 2.285245127934003, 48.861239166976318 ], [ 2.285168415895418, 48.863003543863776 ], [ 2.285935536281269, 48.864614496674058 ], [ 2.287776625207309, 48.866378873561516 ], [ 2.28992456228769, 48.868910370834818 ], [ 2.28992456228769, 48.870137763452178 ], [ 2.289847850249105, 48.873589805188509 ], [ 2.289847850249105, 48.878422663619361 ], [ 2.29115195490505, 48.881567857201347 ], [ 2.293530028101186, 48.882871961857298 ], [ 2.296061525374492, 48.88325552205022 ], [ 2.302505336615634, 48.883792506320312 ], [ 2.30503683388894, 48.889008924944093 ], [ 2.304346425541675, 48.890773301831551 ], [ 2.302965608847144, 48.894148631529291 ], [ 2.308795723779606, 48.898214369574298 ], [ 2.316927199869619, 48.901589699272044 ], [ 2.313628582210463, 48.905655437317044 ], [ 2.297288917991852, 48.908493782744692 ], [ 2.283634175123717, 48.910028023516396 ], [ 2.265836982171991, 48.908570494783277 ] ] ] ] } },
{ "type": "Feature", "properties": { "Nom": "Marché de l'arche", "Faction": "Independant", "Statut": "Occupé", "Type": "Safe", "Descriptio": "La dernière étape des aventuriers avant l'enfer vert", "Visible": false, "sort": 1 }, "geometry": { "type": "MultiPolygon", "coordinates": [ [ [ [ 2.294153313414691, 48.874117200453789 ], [ 2.294594407636554, 48.874471993632241 ], [ 2.294805365742663, 48.874500760646711 ], [ 2.295179336930765, 48.874519938656356 ], [ 2.295428651056167, 48.874462404627423 ], [ 2.295697143191214, 48.874366514579187 ], [ 2.295860156273207, 48.874251446521313 ], [ 2.296071114379316, 48.874059666424849 ], [ 2.296071114379316, 48.873973365381438 ], [ 2.296099881393786, 48.873704873246396 ], [ 2.296032758360024, 48.873570627178871 ], [ 2.295936868311792, 48.873350080067937 ], [ 2.295735499210507, 48.873215834000412 ], [ 2.295294404988643, 48.873043231913599 ], [ 2.295016323848772, 48.873024053903954 ], [ 2.294690297684786, 48.873081587932887 ], [ 2.294421805549738, 48.873187066985942 ], [ 2.294201258438806, 48.873311724048648 ], [ 2.294057423366459, 48.873493915140287 ], [ 2.294019067347167, 48.87363775021263 ], [ 2.293961533318228, 48.873848708318739 ], [ 2.293990300332697, 48.87399254339109 ], [ 2.294153313414691, 48.874117200453789 ] ] ] ] } },
{ "type": "Feature", "properties": { "Nom": "Opéra", "Faction": "Mutants", "Statut": "Occupé", "Type": "Danger", "Descriptio": "Les Super mutants à l'opéra!", "Visible": false, "sort": 1 }, "geometry": { "type": "MultiPolygon", "coordinates": [ [ [ [ 2.33096550293068, 48.873153505469084 ], [ 2.33096550293068, 48.87283706830992 ], [ 2.330514819703993, 48.871906934842073 ], [ 2.330629887761871, 48.871619264697379 ], [ 2.331809335355115, 48.870957623364582 ], [ 2.33249974370238, 48.871091869432107 ], [ 2.333276453093054, 48.872846657314739 ], [ 2.33096550293068, 48.873153505469084 ] ] ] ] } },
{ "type": "Feature", "properties": { "Nom": "Republique_sud", "Faction": "Republique", "Statut": "Occupé", "Type": "Faction", "Descriptio": "Hopital militaire + Gendarmerie +alentours", "Visible": false, "sort": 1 }, "geometry": { "type": "MultiPolygon", "coordinates": [ [ [ [ 2.253505521969449, 48.812488666455543 ], [ 2.253179495805462, 48.814099619265825 ], [ 2.252278129352088, 48.813716059072902 ], [ 2.252124705274918, 48.813907839169367 ], [ 2.251319228869775, 48.814214687323705 ], [ 2.250993202705789, 48.813946195188656 ], [ 2.249957590184891, 48.81429139936229 ], [ 2.249995946204184, 48.814483179458755 ], [ 2.250111014262061, 48.814636603535924 ], [ 2.250206904310292, 48.814981807709557 ], [ 2.250341150377816, 48.815250299844607 ], [ 2.250532930474279, 48.815787284114698 ], [ 2.25093566867685, 48.816228378336561 ], [ 2.251779501101285, 48.81643933644267 ], [ 2.25314113978617, 48.816516048481255 ], [ 2.253313741872986, 48.816861252654888 ], [ 2.25375483609485, 48.817110566780293 ], [ 2.254732914586809, 48.817263990857462 ], [ 2.255269898856904, 48.81745577095392 ], [ 2.256190443319924, 48.817666729060029 ], [ 2.256976741715421, 48.818261247359068 ], [ 2.2573411238987, 48.818606451532695 ], [ 2.257993176226672, 48.81897083371598 ], [ 2.258491804477475, 48.819124257793149 ], [ 2.259182212824741, 48.819296859879962 ], [ 2.259393170930849, 48.819450283957131 ], [ 2.260083579278114, 48.819853022159705 ], [ 2.260812343644672, 48.820159870314043 ], [ 2.261963024223447, 48.820524252497322 ], [ 2.263228772860101, 48.820773566622726 ], [ 2.264494521496753, 48.821713289095392 ], [ 2.264398631448522, 48.822039315259381 ], [ 2.264916437708971, 48.82213520530761 ], [ 2.264763013631801, 48.822499587490888 ], [ 2.267773961146263, 48.823017393751336 ], [ 2.268119165319896, 48.823247529867089 ], [ 2.269595872062657, 48.823861226175772 ], [ 2.270036966284521, 48.823362597924969 ], [ 2.270132856332753, 48.82309410578992 ], [ 2.271187646863297, 48.822518765500533 ], [ 2.27055477254497, 48.821905069191857 ], [ 2.272395861471011, 48.821579043027867 ], [ 2.273316405934031, 48.821943425211145 ], [ 2.273719144136603, 48.821981781230441 ], [ 2.27414106034882, 48.821674933076096 ], [ 2.273776678165541, 48.821463974969987 ], [ 2.274831468696086, 48.820332472400864 ], [ 2.274447908503161, 48.81897083371598 ], [ 2.27291366773146, 48.818318781388001 ], [ 2.27260681957712, 48.818184535320484 ], [ 2.272357505451719, 48.818050289252959 ], [ 2.275004070782902, 48.81649687047161 ], [ 2.277957484268426, 48.814828383632388 ], [ 2.278053374316657, 48.814425645429814 ], [ 2.270075322303814, 48.813754415092198 ], [ 2.257897286178441, 48.812642090532712 ], [ 2.253505521969449, 48.812488666455543 ] ] ] ] } },
{ "type": "Feature", "properties": { "Nom": "Parc des princes", "Faction": "Ultras", "Statut": "Occupé", "Type": "Faction", "Descriptio": "zone actives des ultras", "Visible": false, "sort": 1 }, "geometry": { "type": "MultiPolygon", "coordinates": [ ] } },
{ "type": "Feature", "properties": { "Nom": "Bourg de Bois", "Faction": "independants", "Statut": "Occupé", "Type": "Safe", "Descriptio": "la ville des marchands", "Visible": false, "sort": 1 }, "geometry": { "type": "MultiPolygon", "coordinates": [ [ [ [ 2.214133068165685, 48.81045579743305 ], [ 2.218198806210691, 48.811146205780318 ], [ 2.224105633181738, 48.808537996468424 ], [ 2.223491936873058, 48.806466771426628 ], [ 2.218889214557957, 48.806390059388043 ], [ 2.21344265981842, 48.80830786035267 ], [ 2.214133068165685, 48.81045579743305 ] ] ] ] } },
{ "type": "Feature", "properties": { "Nom": "Cratère Sud", "Faction": null, "Statut": "innondé", "Type": "cratère", "Descriptio": "Visiblement le fruit d'une grosse explosion, la Seine se déverse dans cet immense cratère et forme un lac radioactif", "Visible": true, "sort": 1 }, "geometry": { "type": "MultiPolygon", "coordinates": [ [ [ [ 2.352069972777434, 48.851068498598131 ], [ 2.351924036574444, 48.85112137998064 ], [ 2.351777201804259, 48.851171712536939 ], [ 2.351629512979216, 48.851219481008926 ], [ 2.351481014870556, 48.851264670915796 ], [ 2.351331752494849, 48.851307268558422 ], [ 2.351181771100352, 48.851347261023506 ], [ 2.351031116153287, 48.851384636187497 ], [ 2.350879833324063, 48.851419382720287 ], [ 2.350727968473427, 48.8514514900886 ], [ 2.350575567638563, 48.851480948559228 ], [ 2.350422677019139, 48.851507749201957 ], [ 2.350269342963296, 48.851531883892292 ], [ 2.350115611953602, 48.851553345313896 ], [ 2.349961530592962, 48.851572126960839 ], [ 2.349807145590484, 48.851588223139537 ], [ 2.349652503747328, 48.851601628970506 ], [ 2.349497651942511, 48.851612340389828 ], [ 2.349342637118702, 48.851620354150377 ], [ 2.349187506267985, 48.851625667822816 ], [ 2.349032306417621, 48.851628279796323 ], [ 2.348877084615784, 48.851628189279104 ], [ 2.348721887917306, 48.85162539629858 ], [ 2.348566763369406, 48.851619901701447 ], [ 2.348411757997433, 48.85161170715336 ], [ 2.348256918790608, 48.851600815138461 ], [ 2.348102292687779, 48.851587228958628 ], [ 2.347947926563192, 48.851570952732445 ], [ 2.347793867212283, 48.851551991393976 ], [ 2.347640161337491, 48.851530350691284 ], [ 2.347486855534099, 48.851506037184642 ], [ 2.34733399627611, 48.8514790582446 ], [ 2.34718162990216, 48.851449422049704 ], [ 2.347029802601468, 48.851417137584036 ], [ 2.346878560399837, 48.851382214634498 ], [ 2.346727949145697, 48.851344663787827 ], [ 2.346578014496211, 48.851304496427417 ], [ 2.346428801903432, 48.851261724729831 ], [ 2.346280356600524, 48.851216361661116 ], [ 2.34613272358805, 48.851168420972897 ], [ 2.345985947620331, 48.851117917198195 ], [ 2.34584007319188, 48.851064865647018 ], [ 2.345695144523909, 48.851009282401705 ], [ 2.34555120555093, 48.850951184312095 ], [ 2.345408299907431, 48.850890588990367 ], [ 2.345266470914651, 48.850827514805751 ], [ 2.345125761567449, 48.8507619808789 ], [ 2.344986214521263, 48.85069400707615 ], [ 2.344847872079191, 48.850623614003482 ], [ 2.344710776179155, 48.850550823000241 ], [ 2.344574968381197, 48.850475656132723 ], [ 2.344440489854873, 48.850398136187444 ], [ 2.344307381366778, 48.85031828666424 ], [ 2.344175683268185, 48.850236131769158 ], [ 2.344045435482814, 48.850151696407103 ], [ 2.343916677494728, 48.850065006174304 ], [ 2.343789448336365, 48.849976087350534 ], [ 2.343663786576704, 48.849884966891153 ], [ 2.343539730309573, 48.849791672418945 ], [ 2.343417317142105, 48.849696232215734 ], [ 2.343296584183331, 48.849598675213812 ], [ 2.343177568032935, 48.849499030987168 ], [ 2.343060304770157, 48.849397329742523 ], [ 2.342944829942859, 48.84929360231019 ], [ 2.342831178556744, 48.849187880134686 ], [ 2.342719385064748, 48.849080195265245 ], [ 2.342609483356592, 48.848970580346084 ], [ 2.342501506748514, 48.848859068606494 ], [ 2.342395487973163, 48.848745693850788 ], [ 2.342291459169682, 48.848630490448038 ], [ 2.342189451873961, 48.848513493321668 ], [ 2.342089497009078, 48.848394737938861 ], [ 2.341991624875926, 48.84827426029981 ], [ 2.341895865144028, 48.848152096926803 ], [ 2.341802246842539, 48.848028284853136 ], [ 2.341710798351451, 48.847902861611921 ], [ 2.341621547392984, 48.847775865224683 ], [ 2.341534521023189, 48.847647334189837 ], [ 2.34144974562374, 48.847517307471016 ], [ 2.34136724689394, 48.847385824485272 ], [ 2.341287049842928, 48.847252925091112 ], [ 2.3412091787821, 48.84711864957643 ], [ 2.341133657317737, 48.846983038646265 ], [ 2.341060508343852, 48.846846133410509 ], [ 2.340989754035244, 48.846707975371395 ], [ 2.340921415840782, 48.846568606410941 ], [ 2.3408555144769, 48.846428068778273 ], [ 2.340792069921316, 48.846286405076761 ], [ 2.340731101406979, 48.846143658251165 ], [ 2.340672627416235, 48.84599987157457 ], [ 2.340616665675225, 48.845855088635311 ], [ 2.340563233148513, 48.845709353323706 ], [ 2.340512346033945, 48.8455627098188 ], [ 2.340464019757732, 48.845415202574962 ], [ 2.34041826896978, 48.845266876308372 ], [ 2.340375107539246, 48.84511777598351 ], [ 2.340334548550335, 48.844967946799514 ], [ 2.340296604298331, 48.844817434176463 ], [ 2.340261286285875, 48.84466628374161 ], [ 2.340228605219471, 48.844514541315583 ], [ 2.340198571006245, 48.844362252898442 ], [ 2.340171192750943, 48.844209464655783 ], [ 2.340146478753167, 48.844056222904705 ], [ 2.340124436504859, 48.843902574099801 ], [ 2.340105072688033, 48.843748564819052 ], [ 2.34008839317275, 48.84359424174972 ], [ 2.340074403015331, 48.843439651674181 ], [ 2.340063106456836, 48.84328484145577 ], [ 2.340054506921767, 48.84312985802454 ], [ 2.340048607017037, 48.842974748363069 ], [ 2.340045408531178, 48.842819559492185 ], [ 2.340044912433795, 48.842664338456729 ], [ 2.34004711887528, 48.842509132311314 ], [ 2.340052027186759, 48.842353988106019 ], [ 2.340059635880298, 48.842198952872145 ], [ 2.340069942649354, 48.84204407360798 ], [ 2.340082944369474, 48.841889397264495 ], [ 2.340098637099241, 48.841734970731181 ], [ 2.340117016081471, 48.841580840821784 ], [ 2.340138075744654, 48.84142705426013 ], [ 2.340161809704641, 48.841273657665965 ], [ 2.340188210766585, 48.841120697540809 ], [ 2.340217270927114, 48.840968220253885 ], [ 2.340248981376765, 48.840816272028022 ], [ 2.34028333250265, 48.840664898925695 ], [ 2.34032031389137, 48.840514146835005 ], [ 2.340359914332173, 48.840364061455809 ], [ 2.340402121820357, 48.840214688285862 ], [ 2.340446923560898, 48.840066072607002 ], [ 2.340494305972339, 48.839918259471439 ], [ 2.340544254690904, 48.839771293688102 ], [ 2.34059675457485, 48.839625219809037 ], [ 2.340651789709061, 48.839480082115934 ], [ 2.340709343409869, 48.839335924606651 ], [ 2.340769398230114, 48.839192790981933 ], [ 2.340831935964432, 48.839050724632138 ], [ 2.340896937654775, 48.838909768624063 ], [ 2.340964383596156, 48.838769965687938 ], [ 2.341034253342624, 48.838631358204417 ], [ 2.341106525713462, 48.838493988191779 ], [ 2.341181178799607, 48.838357897293157 ], [ 2.341258189970294, 48.838223126763928 ], [ 2.341337535879913, 48.838089717459212 ], [ 2.341419192475087, 48.837957709821467 ], [ 2.341503135001968, 48.837827143868246 ], [ 2.341589338013733, 48.83769805918007 ], [ 2.341677775378307, 48.837570494888418 ], [ 2.341768420286277, 48.837444489663852 ], [ 2.341861245259024, 48.837320081704327 ], [ 2.341956222157052, 48.837197308723582 ], [ 2.342053322188518, 48.837076207939738 ], [ 2.342152515917957, 48.836956816063974 ], [ 2.342253773275214, 48.836839169289433 ], [ 2.342357063564549, 48.83672330328023 ], [ 2.342462355473951, 48.836609253160667 ], [ 2.342569617084622, 48.836497053504537 ], [ 2.342678815880662, 48.836386738324705 ], [ 2.342789918758919, 48.836278341062737 ], [ 2.342902892039027, 48.836171894578811 ], [ 2.343017701473616, 48.836067431141721 ], [ 2.343134312258692, 48.835964982419121 ], [ 2.343252689044192, 48.835864579467902 ], [ 2.343372795944694, 48.835766252724788 ], [ 2.343494596550303, 48.835670031997125 ], [ 2.343618053937681, 48.835575946453815 ], [ 2.343743130681246, 48.835484024616484 ], [ 2.343869788864513, 48.835394294350856 ], [ 2.343997990091593, 48.835306782858268 ], [ 2.344127695498825, 48.835221516667474 ], [ 2.344258865766569, 48.835138521626547 ], [ 2.344391461131114, 48.835057822895081 ], [ 2.344525441396736, 48.83497944493655 ], [ 2.344660765947888, 48.834903411510915 ], [ 2.344797393761507, 48.834829745667378 ], [ 2.34493528341945, 48.834758469737416 ], [ 2.345074393121053, 48.834689605328045 ], [ 2.345214680695801, 48.834623173315201 ], [ 2.345356103616111, 48.834559193837478 ], [ 2.345498619010224, 48.834497686289978 ], [ 2.345642183675203, 48.834438669318452 ], [ 2.345786754090031, 48.834382160813647 ], [ 2.345932286428799, 48.834328177905874 ], [ 2.346078736573996, 48.834276736959822 ], [ 2.346226060129883, 48.834227853569601 ], [ 2.346374212435949, 48.834181542553999 ], [ 2.346523148580451, 48.834137817952005 ], [ 2.346672823414029, 48.834096693018544 ], [ 2.346823191563393, 48.834058180220467 ], [ 2.346974207445076, 48.83402229123277 ], [ 2.347125825279255, 48.833989036935037 ], [ 2.347277999103627, 48.83395842740817 ], [ 2.347430682787343, 48.833930471931325 ], [ 2.347583830044992, 48.83390517897908 ], [ 2.347737394450634, 48.833882556218889 ], [ 2.34789132945187, 48.833862610508739 ], [ 2.348045588383958, 48.8338453478951 ], [ 2.348200124483958, 48.833830773611041 ], [ 2.348354890904906, 48.833818892074717 ], [ 2.34850984073002, 48.833809706887948 ], [ 2.348664926986917, 48.833803220835186 ], [ 2.348820102661858, 48.833799435882661 ], [ 2.348975320713993, 48.833798353177762 ], [ 2.349130534089631, 48.833799973048698 ], [ 2.349285695736495, 48.833804295004413 ], [ 2.349440758617991, 48.833811317734735 ], [ 2.349595675727463, 48.833821039110745 ], [ 2.349750400102448, 48.833833456185452 ], [ 2.349904884838908, 48.833848565194671 ], [ 2.350059083105451, 48.833866361558172 ], [ 2.350212948157528, 48.83388683988106 ], [ 2.350366433351599, 48.833909993955423 ], [ 2.350519492159282, 48.833935816762192 ], [ 2.350672078181447, 48.833964300473305 ], [ 2.350824145162289, 48.833995436454039 ], [ 2.35097564700335, 48.834029215265652 ], [ 2.351126537777488, 48.834065626668249 ], [ 2.351276771742806, 48.834104659623854 ], [ 2.351426303356515, 48.834146302299807 ], [ 2.351575087288742, 48.834190542072292 ], [ 2.351723078436267, 48.834237365530228 ], [ 2.351870231936204, 48.834286758479273 ], [ 2.352016503179594, 48.834338705946159 ], [ 2.352161847824929, 48.834393192183235 ], [ 2.352306221811598, 48.834450200673238 ], [ 2.352449581373239, 48.834509714134278 ], [ 2.35259188305101, 48.834571714525104 ], [ 2.35273308370676, 48.834636183050556 ], [ 2.352873140536111, 48.834703100167282 ], [ 2.353012011081429, 48.834772445589643 ], [ 2.353149653244698, 48.834844198295855 ], [ 2.35328602530028, 48.834918336534408 ], [ 2.353421085907565, 48.834994837830592 ], [ 2.353554794123504, 48.835073678993382 ], [ 2.353687109415019, 48.835154836122399 ], [ 2.353817991671289, 48.835238284615208 ], [ 2.353947401215916, 48.835323999174754 ], [ 2.354075298818944, 48.835411953817029 ], [ 2.354201645708759, 48.835502121878967 ], [ 2.354326403583836, 48.835594476026493 ], [ 2.354449534624356, 48.835688988262838 ], [ 2.354571001503666, 48.835785629937021 ], [ 2.354690767399597, 48.835884371752535 ], [ 2.354808796005627, 48.835985183776209 ], [ 2.354925051541885, 48.836088035447311 ], [ 2.355039498765997, 48.836192895586791 ], [ 2.355152102983774, 48.836299732406744 ], [ 2.355262830059725, 48.836408513520041 ], [ 2.355371646427407, 48.836519205950147 ], [ 2.355478519099601, 48.836631776141125 ], [ 2.355583415678308, 48.836746189967798 ], [ 2.355686304364577, 48.836862412746108 ], [ 2.355787153968139, 48.836980409243594 ], [ 2.355885933916864, 48.837100143690137 ], [ 2.355982614266031, 48.837221579788739 ], [ 2.356077165707402, 48.837344680726567 ], [ 2.356169559578108, 48.837469409186085 ], [ 2.356259767869341, 48.837595727356401 ], [ 2.35634776323484, 48.837723596944691 ], [ 2.356433518999182, 48.837852979187836 ], [ 2.356517009165872, 48.837983834864154 ], [ 2.356598208425221, 48.838116124305301 ], [ 2.356677092162017, 48.838249807408303 ], [ 2.356753636462991, 48.838384843647688 ], [ 2.356827818124062, 48.838521192087796 ], [ 2.356899614657375, 48.83865881139517 ], [ 2.356969004298116, 48.83879765985111 ], [ 2.357035966011109, 48.838937695364294 ], [ 2.357100479497195, 48.839078875483544 ], [ 2.357162525199386, 48.839221157410712 ], [ 2.357222084308789, 48.83936449801363 ], [ 2.357279138770313, 48.839508853839213 ], [ 2.357333671288141, 48.839654181126598 ], [ 2.357385665330971, 48.839800435820429 ], [ 2.35743510513703, 48.839947573584233 ], [ 2.357481975718851, 48.840095549813803 ], [ 2.357526262867815, 48.840244319650786 ], [ 2.357567953158462, 48.840393837996231 ], [ 2.357607033952556, 48.840544059524284 ], [ 2.357643493402921, 48.840694938695933 ], [ 2.357677320457029, 48.840846429772796 ], [ 2.357708504860353, 48.840998486830998 ], [ 2.357737037159472, 48.841151063775079 ], [ 2.357762908704942, 48.841304114351992 ], [ 2.357786111653913, 48.841457592165106 ], [ 2.35780663897251, 48.841611450688269 ], [ 2.357824484437963, 48.841765643279928 ], [ 2.357839642640495, 48.841920123197248 ], [ 2.357852108984961, 48.842074843610298 ], [ 2.357861879692243, 48.842229757616238 ], [ 2.357868951800391, 48.842384818253556 ], [ 2.357873323165526, 48.842539978516271 ], [ 2.357874992462487, 48.842695191368207 ], [ 2.357873959185234, 48.842850409757254 ], [ 2.357870223647001, 48.843005586629602 ], [ 2.357863786980199, 48.843160674944052 ], [ 2.357854651136078, 48.843315627686238 ], [ 2.35784281888413, 48.843470397882896 ], [ 2.357828293811251, 48.843624938616088 ], [ 2.357811080320656, 48.843779203037457 ], [ 2.357791183630541, 48.843933144382397 ], [ 2.357768609772504, 48.84408671598424 ], [ 2.357743365589713, 48.844239871288401 ], [ 2.357715458734837, 48.844392563866514 ], [ 2.357684897667718, 48.844544747430461 ], [ 2.357651691652816, 48.844696375846439 ], [ 2.357615850756392, 48.844847403148947 ], [ 2.357577385843463, 48.844997783554696 ], [ 2.357536308574502, 48.845147471476494 ], [ 2.357492631401911, 48.8452964215371 ], [ 2.357446367566238, 48.845444588582922 ], [ 2.357397531092169, 48.845591927697747 ], [ 2.357346136784273, 48.845738394216362 ], [ 2.357292200222518, 48.845883943738052 ], [ 2.357235737757543, 48.846028532140103 ], [ 2.357176766505704, 48.846172115591159 ], [ 2.357115304343885, 48.846314650564487 ], [ 2.357051369904083, 48.846456093851238 ], [ 2.352069972777434, 48.851068498598131 ] ] ] ] } },
{ "type": "Feature", "properties": { "Nom": "Cratère nord", "Faction": null, "Statut": "max_rad", "Type": "cratère", "Descriptio": "Visiblement le fruit d'une grosse explosion, le compteur Geiger s'affole!", "Visible": false, "sort": 1 }, "geometry": { "type": "MultiPolygon", "coordinates": [ [ [ [ 2.359126952040187, 48.885615410152361 ], [ 2.359282291900983, 48.885607212670095 ], [ 2.35943746505931, 48.885596305699757 ], [ 2.359592424259015, 48.88558269256292 ], [ 2.359747122309098, 48.885566377405318 ], [ 2.359901512098095, 48.885547365195535 ], [ 2.360055546608415, 48.885525661723513 ], [ 2.360209178930666, 48.885501273598791 ], [ 2.360362362277933, 48.885474208248489 ], [ 2.360515050000037, 48.88544447391503 ], [ 2.360667195597731, 48.885412079653662 ], [ 2.360818752736868, 48.885377035329675 ], [ 2.36096967526251, 48.8853393516154 ], [ 2.361119917212979, 48.885299039986975 ], [ 2.361269432833863, 48.885256112720825 ], [ 2.361418176591941, 48.88521058288994 ], [ 2.361566103189057, 48.885162464359901 ], [ 2.36171316757591, 48.885111771784636 ], [ 2.361859324965774, 48.885058520601973 ], [ 2.362004530848141, 48.885002727028926 ], [ 2.362148741002272, 48.884944408056768 ], [ 2.362291911510665, 48.88488358144587 ], [ 2.362433998772429, 48.884820265720244 ], [ 2.362574959516565, 48.884754480161945 ], [ 2.36271475081514, 48.884686244805202 ], [ 2.362853330096364, 48.884615580430285 ], [ 2.362990655157549, 48.884542508557189 ], [ 2.363126684177969, 48.884467051439096 ], [ 2.363261375731589, 48.884389232055575 ], [ 2.363394688799685, 48.884309074105616 ], [ 2.363526582783335, 48.884226602000368 ], [ 2.36365701751578, 48.884141840855733 ], [ 2.363785953274661, 48.884054816484728 ], [ 2.363913350794113, 48.883965555389594 ], [ 2.364039171276726, 48.883874084753742 ], [ 2.364163376405353, 48.883780432433483 ], [ 2.364285928354787, 48.883684626949524 ], [ 2.364406789803279, 48.883586697478286 ], [ 2.364525923943899, 48.883486673843052 ], [ 2.364643294495749, 48.883384586504825 ], [ 2.364758865715012, 48.88328046655311 ], [ 2.364872602405836, 48.883174345696403 ], [ 2.364984469931053, 48.883066256252569 ], [ 2.365094434222728, 48.882956231138962 ], [ 2.365202461792532, 48.882844303862441 ], [ 2.365308519741943, 48.882730508509134 ], [ 2.365412575772263, 48.882614879734078 ], [ 2.365514598194455, 48.882497452750648 ], [ 2.365614555938794, 48.88237826331985 ], [ 2.365712418564327, 48.882257347739419 ], [ 2.365808156268146, 48.882134742832768 ], [ 2.365901739894462, 48.882010485937776 ], [ 2.365993140943485, 48.881884614895412 ], [ 2.366082331580104, 48.881757168038227 ], [ 2.366169284642363, 48.881628184178652 ], [ 2.366253973649731, 48.881497702597201 ], [ 2.366336372811169, 48.881365763030495 ], [ 2.366416457032986, 48.881232405659183 ], [ 2.366494201926476, 48.881097671095674 ], [ 2.366569583815348, 48.880961600371798 ], [ 2.366642579742936, 48.880824234926273 ], [ 2.366713167479193, 48.880685616592146 ], [ 2.366781325527456, 48.880545787583976 ], [ 2.366847033130994, 48.880404790485059 ], [ 2.366910270279332, 48.88026266823438 ], [ 2.366971017714341, 48.880119464113605 ], [ 2.367029256936108, 48.879975221733858 ], [ 2.367084970208563, 48.879829985022454 ], [ 2.367138140564888, 48.87968379820952 ], [ 2.367188751812676, 48.879536705814523 ], [ 2.367236788538869, 48.879388752632728 ], [ 2.367282236114449, 48.879239983721519 ], [ 2.367325080698893, 48.879090444386726 ], [ 2.367365309244386, 48.878940180168783 ], [ 2.367402909499801, 48.878789236828879 ], [ 2.367437870014423, 48.878637660335038 ], [ 2.36747018014144, 48.878485496848093 ], [ 2.367499830041183, 48.878332792707639 ], [ 2.367526810684125, 48.878179594417915 ], [ 2.36755111385363, 48.878025948633663 ], [ 2.367572732148453, 48.877871902145884 ], [ 2.367591658984999, 48.877717501867629 ], [ 2.367607888599321, 48.877562794819674 ], [ 2.367621416048884, 48.877407828116233 ], [ 2.36763223721406, 48.877252648950581 ], [ 2.367640348799392, 48.877097304580715 ], [ 2.367645748334593, 48.876941842314913 ], [ 2.367648434175297, 48.87678630949739 ], [ 2.367648405503564, 48.876630753493828 ], [ 2.367645662328125, 48.876475221676962 ], [ 2.367640205484382, 48.876319761412191 ], [ 2.367632036634152, 48.876164420043089 ], [ 2.367621158265163, 48.876009244877054 ], [ 2.367607573690292, 48.875854283170838 ], [ 2.367591287046563, 48.875699582116205 ], [ 2.367572303293881, 48.875545188825548 ], [ 2.367550628213523, 48.875391150317505 ], [ 2.36752626840638, 48.875237513502704 ], [ 2.367499231290944, 48.875084325169411 ], [ 2.367469525101049, 48.874931631969339 ], [ 2.367437158883365, 48.87477948040339 ], [ 2.367402142494643, 48.874627916807533 ], [ 2.36736448659871, 48.874476987338682 ], [ 2.367324202663225, 48.874326737960615 ], [ 2.367281302956186, 48.874177214430013 ], [ 2.367235800542193, 48.874028462282503 ], [ 2.367187709278469, 48.873880526818802 ], [ 2.367137043810642, 48.873733453090907 ], [ 2.367083819568282, 48.873587285888391 ], [ 2.367028052760205, 48.873442069724739 ], [ 2.366969760369534, 48.873297848823839 ], [ 2.36690896014853, 48.873154667106455 ], [ 2.366845670613183, 48.87301256817689 ], [ 2.366779911037574, 48.872871595309704 ], [ 2.366711701448007, 48.872731791436514 ], [ 2.366641062616909, 48.872593199132943 ], [ 2.366568016056501, 48.872455860605648 ], [ 2.366492584012252, 48.872319817679454 ], [ 2.366414789456102, 48.872185111784631 ], [ 2.366334656079466, 48.872051783944265 ], [ 2.366252208286018, 48.87191987476178 ], [ 2.366167471184263, 48.871789424408568 ], [ 2.366080470579884, 48.871660472611744 ], [ 2.365991232967889, 48.871533058642051 ], [ 2.365899785524542, 48.871407221301915 ], [ 2.365806156099083, 48.871282998913614 ], [ 2.365710373205248, 48.871160429307608 ], [ 2.36561246601259, 48.87103954981103 ], [ 2.365512464337588, 48.870920397236297 ], [ 2.365410398634574, 48.870803007869938 ], [ 2.365306299986453, 48.870687417461482 ], [ 2.365200200095242, 48.870573661212632 ], [ 2.365092131272411, 48.870461773766507 ], [ 2.364982126429046, 48.870351789197123 ], [ 2.364870219065824, 48.870243740998973 ], [ 2.364756443262813, 48.870137662076857 ], [ 2.364640833669093, 48.870033584735872 ], [ 2.364523425492201, 48.86993154067153 ], [ 2.364404254487414, 48.869831560960165 ], [ 2.364283356946855, 48.869733676049407 ], [ 2.364160769688445, 48.869637915748953 ], [ 2.364036530044688, 48.869544309221475 ], [ 2.363910675851302, 48.869452884973732 ], [ 2.363783245435698, 48.86936367084791 ], [ 2.363654277605305, 48.869276694013116 ], [ 2.363523811635756, 48.869191980957119 ], [ 2.363391887258923, 48.869109557478275 ], [ 2.36325854465082, 48.869029448677686 ], [ 2.363123824419365, 48.868951678951547 ], [ 2.362987767592015, 48.868876271983702 ], [ 2.362850415603274, 48.868803250738466 ], [ 2.36271181028207, 48.86873263745359 ], [ 2.362571993839018, 48.868664453633514 ], [ 2.362431008853568, 48.868598720042826 ], [ 2.362288898261034, 48.86853545669991 ], [ 2.362145705339521, 48.868474682870868 ], [ 2.362001473696746, 48.868416417063663 ], [ 2.361856247256754, 48.868360677022444 ], [ 2.361710070246544, 48.868307479722198 ], [ 2.361562987182601, 48.868256841363532 ], [ 2.361415042857338, 48.868208777367755 ], [ 2.361266282325455, 48.868163302372203 ], [ 2.361116750890216, 48.86812043022573 ], [ 2.360966494089658, 48.868080173984559 ], [ 2.360815557682717, 48.868042545908246 ], [ 2.360663987635295, 48.868007557455975 ], [ 2.360511830106264, 48.867975219283075 ], [ 2.360359131433404, 48.867945541237752 ], [ 2.360205938119296, 48.867918532358104 ], [ 2.360052296817156, 48.867894200869372 ], [ 2.359898254316632, 48.86787255418141 ], [ 2.35974385752955, 48.867853598886477 ], [ 2.359589153475631, 48.86783734075717 ], [ 2.35943418926817, 48.867823784744729 ], [ 2.35927901209969, 48.867812934977458 ], [ 2.359123669227566, 48.867804794759543 ], [ 2.358968207959639, 48.867799366569976 ], [ 2.358812675639805, 48.867796652061855 ], [ 2.358657119633597, 48.867796652061855 ], [ 2.358501587313763, 48.867799366569976 ], [ 2.358346126045836, 48.867804794759543 ], [ 2.358190783173713, 48.867812934977458 ], [ 2.358035606005232, 48.867823784744729 ], [ 2.357880641797772, 48.86783734075717 ], [ 2.357725937743853, 48.867853598886477 ], [ 2.357571540956771, 48.86787255418141 ], [ 2.357417498456246, 48.867894200869372 ], [ 2.357263857154106, 48.867918532358104 ], [ 2.357110663839998, 48.867945541237752 ], [ 2.356957965167138, 48.867975219283075 ], [ 2.356805807638107, 48.868007557455975 ], [ 2.356654237590686, 48.868042545908246 ], [ 2.356503301183745, 48.868080173984559 ], [ 2.356353044383186, 48.86812043022573 ], [ 2.356203512947948, 48.868163302372196 ], [ 2.356054752416064, 48.868208777367755 ], [ 2.355906808090801, 48.868256841363532 ], [ 2.355759725026858, 48.868307479722198 ], [ 2.355613548016649, 48.868360677022444 ], [ 2.355468321576656, 48.868416417063656 ], [ 2.355324089933881, 48.868474682870868 ], [ 2.355180897012368, 48.86853545669991 ], [ 2.355038786419835, 48.868598720042826 ], [ 2.354897801434384, 48.868664453633514 ], [ 2.354757984991333, 48.86873263745359 ], [ 2.354619379670128, 48.868803250738466 ], [ 2.354482027681387, 48.868876271983702 ], [ 2.354345970854038, 48.868951678951547 ], [ 2.354211250622583, 48.869029448677686 ], [ 2.354077908014479, 48.869109557478275 ], [ 2.353945983637646, 48.869191980957119 ], [ 2.353815517668097, 48.869276694013116 ], [ 2.353686549837705, 48.86936367084791 ], [ 2.3535591194221, 48.869452884973732 ], [ 2.353433265228714, 48.869544309221475 ], [ 2.353309025584957, 48.869637915748953 ], [ 2.353186438326547, 48.869733676049407 ], [ 2.353065540785988, 48.869831560960165 ], [ 2.352946369781201, 48.86993154067153 ], [ 2.352828961604309, 48.870033584735872 ], [ 2.352713352010589, 48.870137662076857 ], [ 2.352599576207578, 48.870243740998966 ], [ 2.352487668844356, 48.870351789197123 ], [ 2.352377664000991, 48.870461773766507 ], [ 2.35226959517816, 48.870573661212632 ], [ 2.352163495286949, 48.870687417461482 ], [ 2.352059396638829, 48.870803007869938 ], [ 2.351957330935814, 48.870920397236297 ], [ 2.351857329260812, 48.87103954981103 ], [ 2.351759422068154, 48.871160429307608 ], [ 2.35166363917432, 48.871282998913614 ], [ 2.35157000974886, 48.871407221301915 ], [ 2.351478562305513, 48.871533058642051 ], [ 2.351389324693519, 48.871660472611744 ], [ 2.35130232408914, 48.871789424408568 ], [ 2.351217586987384, 48.87191987476178 ], [ 2.351135139193936, 48.872051783944265 ], [ 2.3510550058173, 48.872185111784631 ], [ 2.35097721126115, 48.872319817679454 ], [ 2.350901779216902, 48.872455860605648 ], [ 2.350828732656494, 48.872593199132943 ], [ 2.350758093825395, 48.872731791436514 ], [ 2.350689884235828, 48.872871595309704 ], [ 2.350624124660219, 48.87301256817689 ], [ 2.350560835124872, 48.873154667106455 ], [ 2.350500034903868, 48.873297848823839 ], [ 2.350441742513197, 48.873442069724739 ], [ 2.35038597570512, 48.873587285888391 ], [ 2.35033275146276, 48.873733453090907 ], [ 2.350282085994933, 48.873880526818802 ], [ 2.35023399473121, 48.874028462282503 ], [ 2.350188492317216, 48.874177214430013 ], [ 2.350145592610178, 48.874326737960615 ], [ 2.350105308674693, 48.874476987338682 ], [ 2.35006765277876, 48.874627916807533 ], [ 2.350032636390037, 48.87477948040339 ], [ 2.350000270172353, 48.874931631969339 ], [ 2.349970563982458, 48.875084325169411 ], [ 2.349943526867022, 48.875237513502704 ], [ 2.349919167059879, 48.875391150317505 ], [ 2.349897491979521, 48.875545188825548 ], [ 2.349878508226839, 48.875699582116205 ], [ 2.34986222158311, 48.875854283170838 ], [ 2.34984863700824, 48.876009244877054 ], [ 2.34983775863925, 48.876164420043089 ], [ 2.34982958978902, 48.876319761412191 ], [ 2.349824132945277, 48.876475221676962 ], [ 2.349821389769838, 48.876630753493828 ], [ 2.349821361098105, 48.87678630949739 ], [ 2.349824046938809, 48.876941842314913 ], [ 2.34982944647401, 48.877097304580715 ], [ 2.349837558059342, 48.877252648950581 ], [ 2.349848379224519, 48.877407828116233 ], [ 2.349861906674081, 48.877562794819674 ], [ 2.349878136288403, 48.877717501867629 ], [ 2.349897063124949, 48.877871902145884 ], [ 2.349918681419772, 48.878025948633663 ], [ 2.349942984589277, 48.878179594417915 ], [ 2.349969965232219, 48.878332792707639 ], [ 2.349999615131962, 48.878485496848093 ], [ 2.350031925258979, 48.878637660335038 ], [ 2.350066885773601, 48.878789236828879 ], [ 2.350104486029016, 48.878940180168783 ], [ 2.35014471457451, 48.879090444386726 ], [ 2.350187559158953, 48.879239983721519 ], [ 2.350233006734533, 48.879388752632728 ], [ 2.350281043460726, 48.879536705814523 ], [ 2.350331654708514, 48.87968379820952 ], [ 2.350384825064839, 48.879829985022454 ], [ 2.350440538337294, 48.879975221733858 ], [ 2.350498777559061, 48.880119464113605 ], [ 2.350559524994071, 48.88026266823438 ], [ 2.350622762142408, 48.880404790485059 ], [ 2.350688469745946, 48.880545787583976 ], [ 2.350756627794209, 48.880685616592146 ], [ 2.350827215530466, 48.880824234926273 ], [ 2.350900211458054, 48.880961600371798 ], [ 2.350975593346926, 48.881097671095674 ], [ 2.351053338240416, 48.881232405659183 ], [ 2.351133422462233, 48.881365763030495 ], [ 2.351215821623672, 48.881497702597201 ], [ 2.351300510631039, 48.881628184178652 ], [ 2.351387463693298, 48.881757168038227 ], [ 2.351476654329917, 48.881884614895412 ], [ 2.35156805537894, 48.882010485937776 ], [ 2.351661639005256, 48.882134742832768 ], [ 2.351757376709076, 48.882257347739419 ], [ 2.351855239334609, 48.88237826331985 ], [ 2.351955197078947, 48.882497452750648 ], [ 2.352057219501139, 48.882614879734078 ], [ 2.35216127553146, 48.882730508509134 ], [ 2.35226733348087, 48.882844303862441 ], [ 2.352375361050675, 48.882956231138962 ], [ 2.352485325342349, 48.883066256252569 ], [ 2.352597192867566, 48.883174345696403 ], [ 2.35271092955839, 48.88328046655311 ], [ 2.352826500777653, 48.883384586504825 ], [ 2.352943871329503, 48.883486673843052 ], [ 2.353063005470123, 48.883586697478286 ], [ 2.353183866918615, 48.883684626949524 ], [ 2.35330641886805, 48.883780432433483 ], [ 2.353430623996677, 48.883874084753742 ], [ 2.353556444479289, 48.883965555389594 ], [ 2.353683841998742, 48.884054816484728 ], [ 2.353812777757623, 48.884141840855733 ], [ 2.353943212490068, 48.884226602000368 ], [ 2.354075106473717, 48.884309074105616 ], [ 2.354208419541813, 48.884389232055575 ], [ 2.354343111095433, 48.884467051439096 ], [ 2.354479140115853, 48.884542508557189 ], [ 2.354616465177038, 48.884615580430285 ], [ 2.354755044458262, 48.884686244805202 ], [ 2.354894835756837, 48.884754480161945 ], [ 2.355035796500974, 48.884820265720244 ], [ 2.355177883762738, 48.88488358144587 ], [ 2.35532105427113, 48.884944408056775 ], [ 2.355465264425261, 48.885002727028926 ], [ 2.355610470307628, 48.885058520601973 ], [ 2.355756627697493, 48.885111771784636 ], [ 2.355903692084345, 48.885162464359901 ], [ 2.356051618681462, 48.88521058288994 ], [ 2.35620036243954, 48.885256112720825 ], [ 2.356349878060423, 48.885299039986975 ], [ 2.356500120010893, 48.8853393516154 ], [ 2.356651042536534, 48.885377035329675 ], [ 2.356802599675671, 48.885412079653662 ], [ 2.356954745273366, 48.88544447391503 ], [ 2.357107432995469, 48.885474208248489 ], [ 2.357260616342737, 48.885501273598791 ], [ 2.357414248664987, 48.885525661723513 ], [ 2.357568283175307, 48.885547365195535 ], [ 2.357722672964304, 48.885566377405318 ], [ 2.357877371014388, 48.88558269256292 ], [ 2.358032330214092, 48.885596305699757 ], [ 2.358187503372419, 48.885607212670095 ], [ 2.358342843233215, 48.885615410152361 ], [ 2.359126952040187, 48.885615410152361 ] ] ] ] } },
{ "type": "Feature", "properties": { "Nom": "Cratère ouest", "Faction": null, "Statut": "max_rad", "Type": "cratère", "Descriptio": "Visiblement le fruit d'une grosse explosion", "Visible": false, "sort": 1 }, "geometry": { "type": "MultiPolygon", "coordinates": [ [ [ [ 2.230648417815356, 48.89248789322523 ], [ 2.230488157966552, 48.892544176931402 ], [ 2.23032694103967, 48.892597657555982 ], [ 2.230164816058837, 48.892648318836159 ], [ 2.230001832324311, 48.892696145366443 ], [ 2.229838039397486, 48.892741122603361 ], [ 2.229673487085819, 48.892783236869874 ], [ 2.229508225427692, 48.892822475359544 ], [ 2.229342304677186, 48.892858826140426 ], [ 2.229175775288805, 48.892892278158669 ], [ 2.229008687902136, 48.892922821241925 ], [ 2.228841093326441, 48.892950446102411 ], [ 2.228673042525218, 48.892975144339736 ], [ 2.228504586600692, 48.892996908443465 ], [ 2.228335776778284, 48.893015731795387 ], [ 2.228166664391033, 48.893031608671564 ], [ 2.22799730086398, 48.893044534244012 ], [ 2.227827737698538, 48.893054504582231 ], [ 2.227658026456826, 48.893061516654356 ], [ 2.227488218745992, 48.893065568328105 ], [ 2.227318366202518, 48.89306665837141 ], [ 2.227148520476521, 48.893064786452797 ], [ 2.226978733216042, 48.893059953141503 ], [ 2.226809056051346, 48.89305215990727 ], [ 2.226639540579219, 48.893041409119931 ], [ 2.226470238347277, 48.893027704048677 ], [ 2.226301200838291, 48.893011048861048 ], [ 2.226132479454537, 48.892991448621693 ], [ 2.225964125502157, 48.892968909290801 ], [ 2.225796190175564, 48.892943437722316 ], [ 2.225628724541872, 48.89291504166183 ], [ 2.225461779525365, 48.892883729744256 ], [ 2.225295405892015, 48.892849511491157 ], [ 2.225129654234044, 48.8928123973079 ], [ 2.224964574954536, 48.892772398480467 ], [ 2.224800218252117, 48.892729527172008 ], [ 2.224636634105682, 48.892683796419185 ], [ 2.224473872259204, 48.892635220128156 ], [ 2.224311982206601, 48.892583813070402 ], [ 2.224151013176693, 48.892529590878176 ], [ 2.223991014118226, 48.892472570039807 ], [ 2.223832033684988, 48.892412767894641 ], [ 2.223674120221018, 48.892350202627789 ], [ 2.223517321745902, 48.892284893264602 ], [ 2.223361685940169, 48.89221685966487 ], [ 2.223207260130796, 48.892146122516785 ], [ 2.223054091276816, 48.892072703330676 ], [ 2.222902225955035, 48.891996624432423 ], [ 2.22275171034587, 48.891917908956714 ], [ 2.222602590219308, 48.891836580839971 ], [ 2.222454910920987, 48.891752664813097 ], [ 2.222308717358404, 48.891666186393948 ], [ 2.222164053987265, 48.891577171879568 ], [ 2.22202096479796, 48.891485648338211 ], [ 2.221879493302192, 48.891391643601075 ], [ 2.221739682519741, 48.89129518625387 ], [ 2.221601574965383, 48.891196305628128 ], [ 2.221465212635967, 48.89109503179224 ], [ 2.221330636997636, 48.890991395542372 ], [ 2.221197888973223, 48.890885428393055 ], [ 2.221067008929807, 48.890777162567638 ], [ 2.220938036666434, 48.890666630988441 ], [ 2.220811011402018, 48.890553867266796 ], [ 2.220685971763416, 48.890438905692797 ], [ 2.220562955773677, 48.890321781224863 ], [ 2.220442000840485, 48.890202529479154 ], [ 2.220323143744779, 48.890081186718682 ], [ 2.220206420629574, 48.88995778984232 ], [ 2.220091866988965, 48.889832376373576 ], [ 2.219979517657336, 48.889704984449182 ], [ 2.219869406798769, 48.88957565280748 ], [ 2.21976156789665, 48.889444420776677 ], [ 2.219656033743494, 48.889311328262849 ], [ 2.219552836430967, 48.889176415737836 ], [ 2.219452007340131, 48.889039724226905 ], [ 2.219353577131899, 48.888901295296307 ], [ 2.219257575737714, 48.888761171040613 ], [ 2.219164032350446, 48.888619394069927 ], [ 2.219072975415515, 48.888476007496919 ], [ 2.218984432622237, 48.888331054923718 ], [ 2.218898430895414, 48.888184580428657 ], [ 2.218814996387134, 48.888036628552882 ], [ 2.218734154468829, 48.887887244286759 ], [ 2.218655929723554, 48.887736473056265 ], [ 2.218580345938513, 48.887584360709106 ], [ 2.218507426097827, 48.887430953500825 ], [ 2.218437192375541, 48.8872762980807 ], [ 2.218369666128886, 48.887120441477599 ], [ 2.218304867891782, 48.886963431085626 ], [ 2.218242817368593, 48.886805314649756 ], [ 2.218183533428138, 48.886646140251308 ], [ 2.218127034097949, 48.886485956293285 ], [ 2.218073336558794, 48.886324811485714 ], [ 2.218022457139447, 48.886162754830785 ], [ 2.21797441131173, 48.885999835607983 ], [ 2.2179292136858, 48.88583610335909 ], [ 2.217886878005711, 48.8856716078731 ], [ 2.217847417145236, 48.885506399171121 ], [ 2.217810843103946, 48.885340527491131 ], [ 2.217777167003568, 48.885174043272713 ], [ 2.2177463990846, 48.885006997141716 ], [ 2.217718548703195, 48.884839439894861 ], [ 2.21769362432832, 48.884671422484281 ], [ 2.217671633539176, 48.88450299600207 ], [ 2.217652583022899, 48.88433421166468 ], [ 2.217636478572522, 48.884165120797398 ], [ 2.217623325085214, 48.883995774818729 ], [ 2.217613126560793, 48.883826225224752 ], [ 2.217605886100506, 48.883656523573457 ], [ 2.217601605906092, 48.883486721469062 ], [ 2.217600287279105, 48.883316870546366 ], [ 2.217601930620524, 48.883147022454978 ], [ 2.21760653543063, 48.882977228843664 ], [ 2.217614100309154, 48.882807541344619 ], [ 2.217624622955708, 48.882638011557773 ], [ 2.217638100170482, 48.882468691035093 ], [ 2.217654527855216, 48.882299631264914 ], [ 2.21767390101445, 48.882130883656281 ], [ 2.217696213757038, 48.881962499523304 ], [ 2.217721459297945, 48.881794530069584 ], [ 2.217749629960303, 48.881627026372605 ], [ 2.217780717177756, 48.881460039368228 ], [ 2.217814711497051, 48.881293619835198 ], [ 2.217851602580927, 48.881127818379689 ], [ 2.217891379211249, 48.880962685419931 ], [ 2.217934029292421, 48.880798271170868 ], [ 2.217979539855067, 48.880634625628893 ], [ 2.218027897059971, 48.880471798556663 ], [ 2.21807908620229, 48.880309839467913 ], [ 2.21813309171602, 48.88014879761247 ], [ 2.218189897178736, 48.879988721961212 ], [ 2.218249485316577, 48.879829661191231 ], [ 2.21831183800951, 48.87967166367099 ], [ 2.218376936296828, 48.879514777445628 ], [ 2.218444760382927, 48.879359050222369 ], [ 2.218515289643316, 48.879204529355988 ], [ 2.218588502630897, 48.87905126183442 ], [ 2.21866437708248, 48.878899294264471 ], [ 2.218742889925557, 48.878748672857654 ], [ 2.218824017285317, 48.878599443416128 ], [ 2.218907734491904, 48.878451651318777 ], [ 2.218994016087924, 48.878305341507392 ], [ 2.219082835836181, 48.878160558473034 ], [ 2.219174166727657, 48.87801734624248 ], [ 2.219267980989727, 48.877875748364836 ], [ 2.219364250094601, 48.877735807898333 ], [ 2.219462944768003, 48.877597567397174 ], [ 2.219564034998069, 48.877461068898633 ], [ 2.219667490044477, 48.877326353910263 ], [ 2.21977327844779, 48.877193463397269 ], [ 2.219881368039028, 48.877062437770064 ], [ 2.219991725949446, 48.876933316871963 ], [ 2.220104318620529, 48.876806139967073 ], [ 2.220219111814202, 48.876680945728367 ], [ 2.220336070623234, 48.876557772225901 ], [ 2.220455159481859, 48.876436656915267 ], [ 2.220576342176586, 48.876317636626162 ], [ 2.220699581857215, 48.876200747551238 ], [ 2.220824841048041, 48.876086025235047 ], [ 2.220952081659252, 48.87597350456327 ], [ 2.221081264998507, 48.875863219752084 ], [ 2.221212351782706, 48.875755204337779 ], [ 2.221345302149935, 48.875649491166541 ], [ 2.221480075671586, 48.875546112384484 ], [ 2.221616631364652, 48.875445099427836 ], [ 2.221754927704188, 48.875346483013431 ], [ 2.221894922635942, 48.875250293129341 ], [ 2.222036573589138, 48.87515655902574 ], [ 2.222179837489425, 48.87506530920605 ], [ 2.222324670771972, 48.874976571418237 ], [ 2.222471029394722, 48.874890372646405 ], [ 2.222618868851777, 48.874806739102553 ], [ 2.222768144186936, 48.874725696218647 ], [ 2.222918810007364, 48.874647268638846 ], [ 2.223070820497398, 48.874571480212033 ], [ 2.223224129432476, 48.874498353984563 ], [ 2.223378690193195, 48.874427912193241 ], [ 2.223534455779485, 48.874360176258563 ], [ 2.223691378824905, 48.874295166778218 ], [ 2.223849411611045, 48.874232903520799 ], [ 2.224008506082034, 48.874173405419825 ], [ 2.224168613859157, 48.874116690567945 ], [ 2.224329686255565, 48.874062776211467 ], [ 2.224491674291079, 48.874011678745099 ], [ 2.224654528707085, 48.873963413706967 ], [ 2.224818199981515, 48.873917995773887 ], [ 2.224982638343901, 48.873875438756897 ], [ 2.225147793790516, 48.873835755597092 ], [ 2.225313616099573, 48.873798958361625 ], [ 2.225480054846504, 48.87376505824011 ], [ 2.225647059419288, 48.873734065541157 ], [ 2.22581457903384, 48.87370598968927 ], [ 2.225982562749462, 48.873680839221983 ], [ 2.226150959484326, 48.87365862178725 ], [ 2.22631971803101, 48.873639344141132 ], [ 2.22648878707207, 48.873623012145714 ], [ 2.226658115195642, 48.873609630767376 ], [ 2.226827650911082, 48.873599204075219 ], [ 2.226997342664617, 48.873591735239884 ], [ 2.227167138855025, 48.873587226532557 ], [ 2.227336987849327, 48.873585679324272 ], [ 2.227506837998487, 48.873587094085529 ], [ 2.227676637653116, 48.873591470386103 ], [ 2.227846335179182, 48.873598806895217 ], [ 2.228015878973708, 48.87360910138193 ], [ 2.228185217480464, 48.873622350715813 ], [ 2.228354299205649, 48.873638550867902 ], [ 2.228523072733541, 48.87365769691192 ], [ 2.228691486742141, 48.873679783025793 ], [ 2.228859490018775, 48.8737048024934 ], [ 2.229027031475667, 48.873732747706612 ], [ 2.229194060165473, 48.873763610167636 ], [ 2.22936052529678, 48.873797380491567 ], [ 2.22952637624954, 48.87383404840925 ], [ 2.229691562590476, 48.873873602770416 ], [ 2.229856034088407, 48.873916031547054 ], [ 2.230019740729528, 48.873961321837093 ], [ 2.230182632732618, 48.874009459868297 ], [ 2.230344660564179, 48.874060431002469 ], [ 2.230505774953496, 48.874114219739894 ], [ 2.230665926907619, 48.87417080972407 ], [ 2.230825067726267, 48.874230183746668 ], [ 2.230983149016629, 48.874292323752755 ], [ 2.231140122708087, 48.874357210846298 ], [ 2.231295941066829, 48.874424825295925 ], [ 2.231450556710365, 48.874495146540887 ], [ 2.231603922621938, 48.874568153197337 ], [ 2.231755992164819, 48.874643823064837 ], [ 2.231906719096489, 48.874722133133076 ], [ 2.232056057582699, 48.87480305958892 ], [ 2.232203962211413, 48.874886577823602 ], [ 2.232350388006612, 48.874972662440221 ], [ 2.232495290441971, 48.875061287261495 ], [ 2.232638625454405, 48.875152425337674 ], [ 2.232780349457458, 48.875246048954772 ], [ 2.232920419354565, 48.875342129642959 ], [ 2.233058792552157, 48.875440638185268 ], [ 2.233195426972606, 48.875541544626422 ], [ 2.23333028106703, 48.875644818282005 ], [ 2.233463313827919, 48.875750427747718 ], [ 2.233594484801611, 48.875858340909005 ], [ 2.233723754100592, 48.875968524950778 ], [ 2.23385108241562, 48.876080946367381 ], [ 2.233976431027688, 48.876195570972818 ], [ 2.234099761819788, 48.876312363911126 ], [ 2.234221037288512, 48.876431289666975 ], [ 2.234340220555446, 48.876552312076477 ], [ 2.234457275378394, 48.876675394338172 ], [ 2.234572166162391, 48.87680049902422 ], [ 2.234684857970532, 48.876927588091796 ], [ 2.234795316534592, 48.877056622894635 ], [ 2.234903508265451, 48.87718756419482 ], [ 2.235009400263304, 48.877320372174658 ], [ 2.235112960327669, 48.877455006448855 ], [ 2.235214156967175, 48.877591426076734 ], [ 2.235312959409142, 48.877729589574734 ], [ 2.235409337608934, 48.877869454929005 ], [ 2.235503262259102, 48.878010979608156 ], [ 2.235594704798286, 48.878154120576248 ], [ 2.235683637419912, 48.878298834305831 ], [ 2.235770033080639, 48.878445076791202 ], [ 2.235853865508585, 48.878592803561773 ], [ 2.235935109211317, 48.878741969695611 ], [ 2.236013739483602, 48.878892529833095 ], [ 2.23608973241492, 48.879044438190697 ], [ 2.236163064896734, 48.879197648574909 ], [ 2.236233714629519, 48.879352114396291 ], [ 2.23630166012954, 48.879507788683654 ], [ 2.236366880735389, 48.879664624098318 ], [ 2.236429356614262, 48.879822572948513 ], [ 2.236489068767998, 48.879981587203893 ], [ 2.236545999038847, 48.880141618510144 ], [ 2.236600130114999, 48.880302618203665 ], [ 2.236651445535845, 48.880464537326382 ], [ 2.236699929696983, 48.880627326640642 ], [ 2.236745567854962, 48.880790936644175 ], [ 2.236788346131767, 48.880955317585141 ], [ 2.236828251519039, 48.88112041947727 ], [ 2.236865271882029, 48.88128619211507 ], [ 2.23689939596329, 48.881452585089072 ], [ 2.2369306133861, 48.881619547801172 ], [ 2.236958914657615, 48.881787029480023 ], [ 2.23698429117176, 48.88195497919645 ], [ 2.23700673521184, 48.882123345878973 ], [ 2.237026239952895, 48.882292078329307 ], [ 2.237042799463766, 48.882461125237938 ], [ 2.237056408708907, 48.882630435199744 ], [ 2.237067063549907, 48.882799956729592 ], [ 2.23707476074676, 48.882969638278027 ], [ 2.237079497958839, 48.883139428246935 ], [ 2.237081273745615, 48.883309275005217 ], [ 2.237080087567094, 48.883479126904525 ], [ 2.237075939783978, 48.883648932294946 ], [ 2.237068831657556, 48.883818639540685 ], [ 2.237058765349327, 48.883988197035826 ], [ 2.237045743920332, 48.884157553219964 ], [ 2.237029771330232, 48.88432665659392 ], [ 2.2370108524361, 48.884495455735397 ], [ 2.236988992990942, 48.88466389931461 ], [ 2.236964199641954, 48.884831936109876 ], [ 2.236936479928496, 48.884999515023246 ], [ 2.236905842279798, 48.885166585095973 ], [ 2.236872296012401, 48.885333095524061 ], [ 2.236835851327322, 48.885498995673693 ], [ 2.236796519306951, 48.885664235096634 ], [ 2.236754311911682, 48.885828763545554 ], [ 2.236709241976277, 48.885992530989327 ], [ 2.23666132320596, 48.886155487628258 ], [ 2.236610570172255, 48.886317583909175 ], [ 2.236556998308548, 48.886478770540563 ], [ 2.236500623905398, 48.8866389985075 ], [ 2.236441464105584, 48.886798219086586 ], [ 2.236379536898889, 48.886956383860763 ], [ 2.236314861116632, 48.88711344473402 ], [ 2.236247456425941, 48.887269353946039 ], [ 2.236177343323771, 48.887424064086694 ], [ 2.236104543130674, 48.887577528110505 ], [ 2.236029077984313, 48.887729699350899 ], [ 2.235950970832731, 48.887880531534442 ], [ 2.235870245427373, 48.888029978794869 ], [ 2.235786926315866, 48.888177995687066 ], [ 2.235701038834548, 48.88832453720088 ], [ 2.23561260910077, 48.888469558774801 ], [ 2.235521664004949, 48.888613016309513 ], [ 2.235428231202397, 48.888754866181301 ], [ 2.235332339104906, 48.888895065255326 ], [ 2.235234016872107, 48.889033570898739 ], [ 2.235133294402611, 48.88917034099363 ], [ 2.235030202324908, 48.889305333949871 ], [ 2.230648417815356, 48.89248789322523 ] ] ] ] } },
{ "type": "Feature", "properties": { "Nom": "Paris", "Faction": null, "Statut": null, "Type": "zone", "Descriptio": null, "Visible": false, "sort": 0 }, "geometry": { "type": "MultiPolygon", "coordinates": [ [ [ [ 2.27008337570893, 48.838650417960089 ], [ 2.300709743228334, 48.828933618626628 ], [ 2.3239562631527, 48.823275735470432 ], [ 2.346341800857646, 48.818970824373324 ], [ 2.365775399524577, 48.819462814212997 ], [ 2.385946982951011, 48.8265966668882 ], [ 2.407102546056784, 48.835698478922076 ], [ 2.41226843937331, 48.845046285875789 ], [ 2.411284459693972, 48.850704169031985 ], [ 2.40685655113695, 48.877886607673702 ], [ 2.391727863567124, 48.900149147918732 ], [ 2.359871521448548, 48.898673178399726 ], [ 2.322234298713858, 48.897935193640222 ], [ 2.290992943894868, 48.88563544764849 ], [ 2.279185187742809, 48.87161373721792 ], [ 2.27008337570893, 48.838650417960089 ] ] ] ] } }
]
}
